{
  "type": "FeatureCollection",
  "features": [
    {
      "type": "Feature",
      "properties": {
        "norad_id": 28051,
        "name": "IRS-P6 (RESOURCESAT-1)",
        "group": "resource",
        "lat": -34.28537224683343,
        "lon": -162.0915394281968,
        "alt_km": 735.4263060420226,
        "timestamp": "2025-12-08T23:34:03.625939+00:00",
        "meta_object_name": "IRS-P6 (RESOURCESAT-1)",
        "meta_object_id": "2003-046A",
        "meta_epoch": "2025-12-08T14:44:52.456128",
        "meta_mean_motion": 14.36072377,
        "meta_eccentricity": 0.00639642,
        "meta_inclination": 98.2184,
        "meta_ra_of_asc_node": 23.2127,
        "meta_arg_of_pericenter": 193.0822,
        "meta_mean_anomaly": 282.4536,
        "meta_ephemeris_type": 0,
        "meta_classification_type": "U",
        "meta_norad_cat_id": 28051,
        "meta_element_set_no": 999,
        "meta_rev_at_epoch": 15317,
        "meta_bstar": 0.00015143704,
        "meta_mean_motion_dot": 4.1e-06,
        "meta_mean_motion_ddot": 0,
        "tle_line1": "1 28051U 03046A   25342.61449602  .00000410  00000+0  15144-3 0  9999",
        "tle_line2": "2 28051  98.2184  23.2127 0063964 193.0822 282.4536 14.36072377153177"
      },
      "geometry": {
        "type": "Point",
        "coordinates": [
          -162.0915394281968,
          -34.28537224683343
        ]
      }
    },
    {
      "type": "Feature",
      "properties": {
        "norad_id": 28220,
        "name": "SHIYAN-1 (SY-1)",
        "group": "resource",
        "lat": -72.92488790057516,
        "lon": 71.1505649951051,
        "alt_km": 486.8065149320619,
        "timestamp": "2025-12-08T23:34:03.625951+00:00",
        "meta_object_name": "SHIYAN-1 (SY-1)",
        "meta_object_id": "2004-012A",
        "meta_epoch": "2025-12-08T03:27:43.909344",
        "meta_mean_motion": 15.27962186,
        "meta_eccentricity": 0.00059298,
        "meta_inclination": 97.8934,
        "meta_ra_of_asc_node": 43.4119,
        "meta_arg_of_pericenter": 343.3198,
        "meta_mean_anomaly": 16.7844,
        "meta_ephemeris_type": 0,
        "meta_classification_type": "U",
        "meta_norad_cat_id": 28220,
        "meta_element_set_no": 999,
        "meta_rev_at_epoch": 18186,
        "meta_bstar": 0.00060079939,
        "meta_mean_motion_dot": 0.00016338,
        "meta_mean_motion_ddot": 0,
        "tle_line1": "1 28220U 04012A   25342.14425821  .00016338  00000+0  60080-3 0  9991",
        "tle_line2": "2 28220  97.8934  43.4119 0005929 343.3198  16.7844 15.27962186181865"
      },
      "geometry": {
        "type": "Point",
        "coordinates": [
          71.1505649951051,
          -72.92488790057516
        ]
      }
    },
    {
      "type": "Feature",
      "properties": {
        "norad_id": 28376,
        "name": "AURA",
        "group": "resource",
        "lat": 34.2920067063491,
        "lon": 118.91707945881932,
        "alt_km": 687.4424773557012,
        "timestamp": "2025-12-08T23:34:03.625962+00:00",
        "meta_object_name": "AURA",
        "meta_object_id": "2004-026A",
        "meta_epoch": "2025-12-08T14:41:11.647968",
        "meta_mean_motion": 14.60932931,
        "meta_eccentricity": 0.00011685,
        "meta_inclination": 98.3179,
        "meta_ra_of_asc_node": 292.8195,
        "meta_arg_of_pericenter": 93.2768,
        "meta_mean_anomaly": 266.8566,
        "meta_ephemeris_type": 0,
        "meta_classification_type": "U",
        "meta_norad_cat_id": 28376,
        "meta_element_set_no": 999,
        "meta_rev_at_epoch": 13838,
        "meta_bstar": 0.00044553673,
        "meta_mean_motion_dot": 2.134e-05,
        "meta_mean_motion_ddot": 0,
        "tle_line1": "1 28376U 04026A   25342.61194037  .00002134  00000+0  44554-3 0  9999",
        "tle_line2": "2 28376  98.3179 292.8195 0001168  93.2768 266.8566 14.60932931138382"
      },
      "geometry": {
        "type": "Point",
        "coordinates": [
          118.91707945881932,
          34.2920067063491
        ]
      }
    },
    {
      "type": "Feature",
      "properties": {
        "norad_id": 28649,
        "name": "IRS-P5 (CARTOSAT-1)",
        "group": "resource",
        "lat": -39.18526842005118,
        "lon": 15.768090028406952,
        "alt_km": 603.173666210123,
        "timestamp": "2025-12-08T23:34:03.625973+00:00",
        "meta_object_name": "IRS-P5 (CARTOSAT-1)",
        "meta_object_id": "2005-017A",
        "meta_epoch": "2025-12-08T14:04:37.394688",
        "meta_mean_motion": 14.90385008,
        "meta_eccentricity": 0.00014985,
        "meta_inclination": 97.5496,
        "meta_ra_of_asc_node": 9.1839,
        "meta_arg_of_pericenter": 48.0026,
        "meta_mean_anomaly": 312.132,
        "meta_ephemeris_type": 0,
        "meta_classification_type": "U",
        "meta_norad_cat_id": 28649,
        "meta_element_set_no": 999,
        "meta_rev_at_epoch": 11542,
        "meta_bstar": 0.00028184805,
        "meta_mean_motion_dot": 2.692e-05,
        "meta_mean_motion_ddot": 0,
        "tle_line1": "1 28649U 05017A   25342.58654392  .00002692  00000+0  28185-3 0  9995",
        "tle_line2": "2 28649  97.5496   9.1839 0001498  48.0026 312.1320 14.90385008115426"
      },
      "geometry": {
        "type": "Point",
        "coordinates": [
          15.768090028406952,
          -39.18526842005118
        ]
      }
    },
    {
      "type": "Feature",
      "properties": {
        "norad_id": 28893,
        "name": "SINAH 1",
        "group": "resource",
        "lat": -48.56141078663752,
        "lon": 121.00036759154715,
        "alt_km": 697.4736407791506,
        "timestamp": "2025-12-08T23:34:03.625985+00:00",
        "meta_object_name": "SINAH 1",
        "meta_object_id": "2005-043D",
        "meta_epoch": "2025-12-08T15:35:27.732192",
        "meta_mean_motion": 14.63956166,
        "meta_eccentricity": 0.00151306,
        "meta_inclination": 98.2601,
        "meta_ra_of_asc_node": 111.196,
        "meta_arg_of_pericenter": 149.1539,
        "meta_mean_anomaly": 211.0555,
        "meta_ephemeris_type": 0,
        "meta_classification_type": "U",
        "meta_norad_cat_id": 28893,
        "meta_element_set_no": 999,
        "meta_rev_at_epoch": 7264,
        "meta_bstar": 0.0002071443,
        "meta_mean_motion_dot": 1.037e-05,
        "meta_mean_motion_ddot": 0,
        "tle_line1": "1 28893U 05043D   25342.64962653  .00001037  00000+0  20714-3 0  9996",
        "tle_line2": "2 28893  98.2601 111.1960 0015130 149.1539 211.0555 14.63956166 72644"
      },
      "geometry": {
        "type": "Point",
        "coordinates": [
          121.00036759154715,
          -48.56141078663752
        ]
      }
    },
    {
      "type": "Feature",
      "properties": {
        "norad_id": 29079,
        "name": "EROS B",
        "group": "resource",
        "lat": 1.6842947255079683,
        "lon": 99.16361517275789,
        "alt_km": 371.1186068648567,
        "timestamp": "2025-12-08T23:34:03.626018+00:00",
        "meta_object_name": "EROS B",
        "meta_object_id": "2006-014A",
        "meta_epoch": "2025-12-08T14:21:46.488672",
        "meta_mean_motion": 15.6661638,
        "meta_eccentricity": 0.00016049,
        "meta_inclination": 97.3479,
        "meta_ra_of_asc_node": 98.9802,
        "meta_arg_of_pericenter": 275.3886,
        "meta_mean_anomaly": 84.7192,
        "meta_ephemeris_type": 0,
        "meta_classification_type": "U",
        "meta_norad_cat_id": 29079,
        "meta_element_set_no": 999,
        "meta_rev_at_epoch": 9015,
        "meta_bstar": 0.0016048609,
        "meta_mean_motion_dot": 0.00170887,
        "meta_mean_motion_ddot": 0,
        "tle_line1": "1 29079U 06014A   25342.59845473  .00170887  00000+0  16049-2 0  9991",
        "tle_line2": "2 29079  97.3479  98.9802 0001604 275.3886  84.7192 15.66616380 90152"
      },
      "geometry": {
        "type": "Point",
        "coordinates": [
          99.16361517275789,
          1.6842947255079683
        ]
      }
    },
    {
      "type": "Feature",
      "properties": {
        "norad_id": 29228,
        "name": "RESURS-DK 1",
        "group": "resource",
        "lat": -57.251358710474605,
        "lon": 76.91662462927376,
        "alt_km": 531.8392557417428,
        "timestamp": "2025-12-08T23:34:03.626032+00:00",
        "meta_object_name": "RESURS-DK 1",
        "meta_object_id": "2006-021A",
        "meta_epoch": "2025-12-08T15:54:36.089280",
        "meta_mean_motion": 15.12127563,
        "meta_eccentricity": 0.00076239,
        "meta_inclination": 69.9338,
        "meta_ra_of_asc_node": 112.3734,
        "meta_arg_of_pericenter": 262.4591,
        "meta_mean_anomaly": 97.5709,
        "meta_ephemeris_type": 0,
        "meta_classification_type": "U",
        "meta_norad_cat_id": 29228,
        "meta_element_set_no": 999,
        "meta_rev_at_epoch": 7376,
        "meta_bstar": 0.00028749125,
        "meta_mean_motion_dot": 4.863e-05,
        "meta_mean_motion_ddot": 0,
        "tle_line1": "1 29228U 06021A   25342.66291770  .00004863  00000+0  28749-3 0  9999",
        "tle_line2": "2 29228  69.9338 112.3734 0007623 262.4591  97.5709 15.12127563 73764"
      },
      "geometry": {
        "type": "Point",
        "coordinates": [
          76.91662462927376,
          -57.251358710474605
        ]
      }
    }
  ]
}